start=new Date('2023-02-08T00:00:00.000Z').valueOf();
sats=[{"DECAY_DATE":null,"FILE":"3777477","PERIAPSIS":"546.260","EPOCH":"2023-02-07T13:12:41.427072","ECCENTRICITY":"0.00012660","PERIOD":"95.591","GP_ID":"224711525","REF_FRAME":"TEME","RCS_SIZE":"LARGE","MEAN_ANOMALY":"276.6183","MEAN_ELEMENT_THEORY":"SGP4","OBJECT_TYPE":"PAYLOAD","REV_AT_EPOCH":"9914","MEAN_MOTION_DDOT":"0.0000000000000","NORAD_CAT_ID":"48285","TLE_LINE1":"1 48285U 21036K   23038.55047948 -.00002013  00000-0 -11618-3 0  9995","ARG_OF_PERICENTER":"83.4950","ELEMENT_SET_NO":"999","COUNTRY_CODE":"US","INCLINATION":"53.0523","LAUNCH_DATE":"2021-04-29","SITE":"AFETR","EPHEMERIS_TYPE":"0","RA_OF_ASC_NODE":"97.0534","SEMIMAJOR_AXIS":"6925.271","TLE_LINE2":"2 48285  53.0523  97.0534 0001266  83.4950 276.6183 15.06425171 99147","OBJECT_NAME":"STARLINK-2548","CENTER_NAME":"EARTH","OBJECT_ID":"2021-036K","MEAN_MOTION_DOT":"-0.00002013","MEAN_MOTION":"15.06425171","BSTAR":"-0.00011618000000","APOAPSIS":"548.013","CLASSIFICATION_TYPE":"U","TIME_SYSTEM":"UTC"},{"REF_FRAME":"TEME","GP_ID":"224743056","PERIOD":"95.592","EPOCH":"2023-02-07T21:06:27.352800","ECCENTRICITY":"0.00009600","PERIAPSIS":"546.535","FILE":"3777976","DECAY_DATE":null,"COUNTRY_CODE":"US","ELEMENT_SET_NO":"999","ARG_OF_PERICENTER":"88.6914","TLE_LINE1":"1 48286U 21036L   23038.87948325  .00002305  00000-0  17353-3 0  9994","NORAD_CAT_ID":"48286","MEAN_MOTION_DDOT":"0.0000000000000","REV_AT_EPOCH":"9862","OBJECT_TYPE":"PAYLOAD","MEAN_ELEMENT_THEORY":"SGP4","MEAN_ANOMALY":"271.4185","RCS_SIZE":"LARGE","SEMIMAJOR_AXIS":"6925.335","RA_OF_ASC_NODE":"95.5777","EPHEMERIS_TYPE":"0","SITE":"AFETR","LAUNCH_DATE":"2021-04-29","INCLINATION":"53.0532","TIME_SYSTEM":"UTC","CLASSIFICATION_TYPE":"U","APOAPSIS":"547.865","BSTAR":"0.00017353000000","MEAN_MOTION":"15.06404320","MEAN_MOTION_DOT":"0.00002305","OBJECT_ID":"2021-036L","CENTER_NAME":"EARTH","OBJECT_NAME":"STARLINK-2547","TLE_LINE2":"2 48286  53.0532  95.5777 0000960  88.6914 271.4185 15.06404320 98627"},{"ELEMENT_SET_NO":"999","COUNTRY_CODE":"US","TLE_LINE1":"1 48287U 21036M   23038.87580099  .00000783  00000-0  71435-4 0  9995","ARG_OF_PERICENTER":"87.9602","NORAD_CAT_ID":"48287","REV_AT_EPOCH":"9862","MEAN_MOTION_DDOT":"0.0000000000000","OBJECT_TYPE":"PAYLOAD","RCS_SIZE":"LARGE","MEAN_ELEMENT_THEORY":"SGP4","MEAN_ANOMALY":"272.1521","REF_FRAME":"TEME","PERIOD":"95.592","GP_ID":"224743296","ECCENTRICITY":"0.00011720","EPOCH":"2023-02-07T21:01:09.205536","FILE":"3777976","PERIAPSIS":"546.404","DECAY_DATE":null,"APOAPSIS":"548.027","CLASSIFICATION_TYPE":"U","TIME_SYSTEM":"UTC","BSTAR":"0.00007143500000","MEAN_MOTION":"15.06399395","MEAN_MOTION_DOT":"0.00000783","OBJECT_ID":"2021-036M","OBJECT_NAME":"STARLINK-2566","CENTER_NAME":"EARTH","TLE_LINE2":"2 48287  53.0536  95.6045 0001172  87.9602 272.1521 15.06399395 98620","RA_OF_ASC_NODE":"95.6045","SEMIMAJOR_AXIS":"6925.350","SITE":"AFETR","EPHEMERIS_TYPE":"0","LAUNCH_DATE":"2021-04-29","INCLINATION":"53.0536"},{"FILE":"3777976","PERIAPSIS":"546.342","DECAY_DATE":null,"PERIOD":"95.592","GP_ID":"224742056","REF_FRAME":"TEME","EPOCH":"2023-02-07T20:54:29.107008","ECCENTRICITY":"0.00012670","REV_AT_EPOCH":"9862","MEAN_MOTION_DDOT":"0.0000000000000","RCS_SIZE":"LARGE","MEAN_ANOMALY":"272.7447","MEAN_ELEMENT_THEORY":"SGP4","OBJECT_TYPE":"PAYLOAD","TLE_LINE1":"1 48288U 21036N   23038.87117022  .00000674  00000-0  64141-4 0  9993","ARG_OF_PERICENTER":"87.3687","ELEMENT_SET_NO":"999","COUNTRY_CODE":"US","NORAD_CAT_ID":"48288","LAUNCH_DATE":"2021-04-29","INCLINATION":"53.0549","RA_OF_ASC_NODE":"95.6150","SEMIMAJOR_AXIS":"6925.355","SITE":"AFETR","EPHEMERIS_TYPE":"0","OBJECT_NAME":"STARLINK-2562","CENTER_NAME":"EARTH","TLE_LINE2":"2 48288  53.0549  95.6150 0001267  87.3687 272.7447 15.06398003 98622","BSTAR":"0.00006414100000","MEAN_MOTION":"15.06398003","APOAPSIS":"548.097","TIME_SYSTEM":"UTC","CLASSIFICATION_TYPE":"U","OBJECT_ID":"2021-036N","MEAN_MOTION_DOT":"0.00000674"},{"INCLINATION":"53.0531","LAUNCH_DATE":"2021-04-29","SITE":"AFETR","EPHEMERIS_TYPE":"0","RA_OF_ASC_NODE":"97.1256","SEMIMAJOR_AXIS":"6925.325","TLE_LINE2":"2 48289  53.0531  97.1256 0001259  77.4828 282.6302 15.06407686 98578","OBJECT_NAME":"STARLINK-2545","CENTER_NAME":"EARTH","OBJECT_ID":"2021-036P","MEAN_MOTION_DOT":"0.00003256","BSTAR":"0.00023733000000","MEAN_MOTION":"15.06407686","APOAPSIS":"548.062","CLASSIFICATION_TYPE":"U","TIME_SYSTEM":"UTC","DECAY_DATE":null,"FILE":"3777208","PERIAPSIS":"546.318","ECCENTRICITY":"0.00012590","EPOCH":"2023-02-07T12:52:50.157696","PERIOD":"95.592","GP_ID":"224703633","REF_FRAME":"TEME","RCS_SIZE":"LARGE","MEAN_ANOMALY":"282.6302","MEAN_ELEMENT_THEORY":"SGP4","OBJECT_TYPE":"PAYLOAD","REV_AT_EPOCH":"9857","MEAN_MOTION_DDOT":"0.0000000000000","NORAD_CAT_ID":"48289","TLE_LINE1":"1 48289U 21036P   23038.53669164  .00003256  00000-0  23733-3 0  9996","ARG_OF_PERICENTER":"77.4828","ELEMENT_SET_NO":"999","COUNTRY_CODE":"US"},{"ECCENTRICITY":"0.00012150","EPOCH":"2023-02-07T20:45:13.840992","REF_FRAME":"TEME","PERIOD":"95.592","GP_ID":"224742556","DECAY_DATE":null,"PERIAPSIS":"546.378","FILE":"3777976","NORAD_CAT_ID":"48290","COUNTRY_CODE":"US","ELEMENT_SET_NO":"999","ARG_OF_PERICENTER":"92.9158","TLE_LINE1":"1 48290U 21036Q   23038.86474353  .00000433  00000-0  47990-4 0  9994","OBJECT_TYPE":"PAYLOAD","MEAN_ELEMENT_THEORY":"SGP4","MEAN_ANOMALY":"267.1970","RCS_SIZE":"LARGE","MEAN_MOTION_DDOT":"0.0000000000000","REV_AT_EPOCH":"9862","SITE":"AFETR","EPHEMERIS_TYPE":"0","SEMIMAJOR_AXIS":"6925.354","RA_OF_ASC_NODE":"95.6388","INCLINATION":"53.0564","LAUNCH_DATE":"2021-04-29","MEAN_MOTION_DOT":"0.00000433","OBJECT_ID":"2021-036Q","TIME_SYSTEM":"UTC","CLASSIFICATION_TYPE":"U","APOAPSIS":"548.060","MEAN_MOTION":"15.06398233","BSTAR":"0.00004799000000","TLE_LINE2":"2 48290  53.0564  95.6388 0001215  92.9158 267.1970 15.06398233 98627","CENTER_NAME":"EARTH","OBJECT_NAME":"STARLINK-2540"},{"EPOCH":"2023-02-07T20:39:55.603008","ECCENTRICITY":"0.00016130","REF_FRAME":"TEME","GP_ID":"224742796","PERIOD":"95.592","DECAY_DATE":null,"PERIAPSIS":"546.107","FILE":"3777976","NORAD_CAT_ID":"48291","COUNTRY_CODE":"US","ELEMENT_SET_NO":"999","ARG_OF_PERICENTER":"83.1760","TLE_LINE1":"1 48291U 21036R   23038.86106022  .00000502  00000-0  52575-4 0  9992","OBJECT_TYPE":"PAYLOAD","MEAN_ANOMALY":"276.9412","MEAN_ELEMENT_THEORY":"SGP4","RCS_SIZE":"LARGE","MEAN_MOTION_DDOT":"0.0000000000000","REV_AT_EPOCH":"9862","SITE":"AFETR","EPHEMERIS_TYPE":"0","SEMIMAJOR_AXIS":"6925.359","RA_OF_ASC_NODE":"95.6553","INCLINATION":"53.0562","LAUNCH_DATE":"2021-04-29","MEAN_MOTION_DOT":"0.00000502","OBJECT_ID":"2021-036R","CLASSIFICATION_TYPE":"U","TIME_SYSTEM":"UTC","APOAPSIS":"548.341","BSTAR":"0.00005257500000","MEAN_MOTION":"15.06396563","TLE_LINE2":"2 48291  53.0562  95.6553 0001613  83.1760 276.9412 15.06396563 98626","CENTER_NAME":"EARTH","OBJECT_NAME":"STARLINK-2555"},{"ECCENTRICITY":"0.00013110","EPOCH":"2023-02-07T20:55:52.515840","PERIOD":"95.592","GP_ID":"224741556","REF_FRAME":"TEME","DECAY_DATE":null,"PERIAPSIS":"546.306","FILE":"3777976","NORAD_CAT_ID":"48292","ARG_OF_PERICENTER":"97.3718","TLE_LINE1":"1 48292U 21036S   23038.87213560  .00000980  00000-0  84661-4 0  9991","COUNTRY_CODE":"US","ELEMENT_SET_NO":"999","MEAN_ANOMALY":"262.7420","MEAN_ELEMENT_THEORY":"SGP4","RCS_SIZE":"LARGE","OBJECT_TYPE":"PAYLOAD","MEAN_MOTION_DDOT":"0.0000000000000","REV_AT_EPOCH":"9862","EPHEMERIS_TYPE":"0","SITE":"AFETR","SEMIMAJOR_AXIS":"6925.349","RA_OF_ASC_NODE":"95.7854","INCLINATION":"53.0529","LAUNCH_DATE":"2021-04-29","OBJECT_ID":"2021-036S","MEAN_MOTION_DOT":"0.00000980","MEAN_MOTION":"15.06399894","BSTAR":"0.00008466100000","TIME_SYSTEM":"UTC","CLASSIFICATION_TYPE":"U","APOAPSIS":"548.122","TLE_LINE2":"2 48292  53.0529  95.7854 0001311  97.3718 262.7420 15.06399894 98622","CENTER_NAME":"EARTH","OBJECT_NAME":"STARLINK-2542"},{"OBJECT_NAME":"STARLINK-2550","CENTER_NAME":"EARTH","TLE_LINE2":"2 48293  53.0546  95.6988 0001557  88.8858 271.2309 15.06400963 98622","APOAPSIS":"548.289","CLASSIFICATION_TYPE":"U","TIME_SYSTEM":"UTC","BSTAR":"0.00005857900000","MEAN_MOTION":"15.06400963","MEAN_MOTION_DOT":"0.00000591","OBJECT_ID":"2021-036T","LAUNCH_DATE":"2021-04-29","INCLINATION":"53.0546","RA_OF_ASC_NODE":"95.6988","SEMIMAJOR_AXIS":"6925.346","EPHEMERIS_TYPE":"0","SITE":"AFETR","REV_AT_EPOCH":"9862","MEAN_MOTION_DDOT":"0.0000000000000","OBJECT_TYPE":"PAYLOAD","RCS_SIZE":"LARGE","MEAN_ELEMENT_THEORY":"SGP4","MEAN_ANOMALY":"271.2309","ELEMENT_SET_NO":"999","COUNTRY_CODE":"US","TLE_LINE1":"1 48293U 21036T   23038.85368295  .00000591  00000-0  58579-4 0  9993","ARG_OF_PERICENTER":"88.8858","NORAD_CAT_ID":"48293","FILE":"3777976","PERIAPSIS":"546.132","DECAY_DATE":null,"REF_FRAME":"TEME","PERIOD":"95.592","GP_ID":"224741806","ECCENTRICITY":"0.00015570","EPOCH":"2023-02-07T20:29:18.206880"},{"ECCENTRICITY":"0.00020410","EPOCH":"2023-02-07T20:24:00.065664","REF_FRAME":"TEME","GP_ID":"224743057","PERIOD":"95.592","DECAY_DATE":null,"PERIAPSIS":"545.804","FILE":"3777976","NORAD_CAT_ID":"48294","COUNTRY_CODE":"US","ELEMENT_SET_NO":"999","ARG_OF_PERICENTER":"88.0274","TLE_LINE1":"1 48294U 21036U   23038.85000076  .00000613  00000-0  60061-4 0  9998","OBJECT_TYPE":"PAYLOAD","MEAN_ELEMENT_THEORY":"SGP4","MEAN_ANOMALY":"272.0949","RCS_SIZE":"LARGE","MEAN_MOTION_DDOT":"0.0000000000000","REV_AT_EPOCH":"9862","EPHEMERIS_TYPE":"0","SITE":"AFETR","SEMIMAJOR_AXIS":"6925.353","RA_OF_ASC_NODE":"95.7147","INCLINATION":"53.0541","LAUNCH_DATE":"2021-04-29","MEAN_MOTION_DOT":"0.00000613","OBJECT_ID":"2021-036U","TIME_SYSTEM":"UTC","CLASSIFICATION_TYPE":"U","APOAPSIS":"548.631","BSTAR":"0.00006006100000","MEAN_MOTION":"15.06398675","TLE_LINE2":"2 48294  53.0541  95.7147 0002041  88.0274 272.0949 15.06398675 98624","CENTER_NAME":"EARTH","OBJECT_NAME":"STARLINK-2533"}];
